[{"OBJECT_NAME":"STARLINK-34838","OBJECT_ID":"2025-189W","EPOCH":"2026-03-09T16:49:45.752736","MEAN_MOTION":15.30201971,"ECCENTRICITY":0.00010308,"INCLINATION":53.1606,"RA_OF_ASC_NODE":207.0316,"ARG_OF_PERICENTER":73.3677,"MEAN_ANOMALY":286.7437,"EPHEMERIS_TYPE":0,"CLASSIFICATION_TYPE":"U","NORAD_CAT_ID":65343,"ELEMENT_SET_NO":999,"REV_AT_EPOCH":3111,"BSTAR":0.00068696695,"MEAN_MOTION_DOT":0.00020043,"MEAN_MOTION_DDOT":0},{"OBJECT_NAME":"OBJECT A","OBJECT_ID":"2025-234A","EPOCH":"2026-03-09T23:03:34.210368","MEAN_MOTION":15.32505956,"ECCENTRICITY":0.00130678,"INCLINATION":97.4388,"RA_OF_ASC_NODE":139.352,"ARG_OF_PERICENTER":148.634,"MEAN_ANOMALY":211.5684,"EPHEMERIS_TYPE":0,"CLASSIFICATION_TYPE":"U","NORAD_CAT_ID":66053,"ELEMENT_SET_NO":999,"REV_AT_EPOCH":2164,"BSTAR":0.0014840662,"MEAN_MOTION_DOT":0.00046856,"MEAN_MOTION_DDOT":0}]
